{"fetched_at":"2026-03-30T13:17:50Z","count":15418,"tles":[{"name":"STARLINK-11359 [DTC]","line1":"1 61884U 24204L   26087.90183962  .00001483  00000+0  17114-4 0  9993","line2":"2 61884  53.1592 261.4364 0001609  85.8023 274.3179 15.69697634 79939","category":"Starlink"}]}